IRIDIUM 106             
1 41917U 17003A   26158.04882197  .00000044  00000+0  86308-5 0  9991
2 41917  86.3960  92.7941 0001913  80.4007 279.7405 14.34217724491756
IRIDIUM 103             
1 41918U 17003B   26157.54775725 -.00000768  00000+0 -28133-3 0  9999
2 41918  86.3951  92.9039 0002545  81.7381 278.4103 14.34215513491708
IRIDIUM 109             
1 41919U 17003C   26158.11224909  .00000042  00000+0  79063-5 0  9990
2 41919  86.3963  92.7269 0002308  84.1566 275.9893 14.34217688491752
IRIDIUM 102             
1 41920U 17003D   26158.08053543  .00000136  00000+0  41481-4 0  9998
2 41920  86.3957  92.6638 0002271  86.1775 273.9681 14.34217544491832
IRIDIUM 105             
1 41921U 17003E   26157.96936988  .00000270  00000+0  89215-4 0  9994
2 41921  86.3970  61.1418 0002456  86.0794 274.0683 14.34225790493670
IRIDIUM 104             
1 41922U 17003F   26157.18623070  .00000071  00000+0  18128-4 0  9998
2 41922  86.3961  93.0801 0002514  84.3189 275.8294 14.34217797491690
IRIDIUM 114             
1 41923U 17003G   26158.09956337  .00000084  00000+0  22963-4 0  9991
2 41923  86.3959  92.6814 0002410  83.9444 276.2026 14.34218039491802
IRIDIUM 108             
1 41924U 17003H   26157.43016748 -.00000418  00000+0 -15638-3 0  9995
2 41924  86.3965  61.2582 0002207  89.0971 271.0478 14.34216113493560
IRIDIUM 112             
1 41925U 17003J   26158.08687530  .00000104  00000+0  29933-4 0  9995
2 41925  86.3957  92.5297 0002411  87.8524 272.2948 14.34218802491828
IRIDIUM 111             
1 41926U 17003K   26157.51604489  .00000018  00000+0 -68945-6 0  9998
2 41926  86.3958  92.8384 0002202  83.5148 276.6298 14.34217646491723
IRIDIUM 113             
1 42803U 17039A   26158.19369446  .00000184  00000+0  58583-4 0  9996
2 42803  86.3962 326.3575 0002309  90.4468 269.6992 14.34217808469751
IRIDIUM 123             
1 42804U 17039B   26157.81656120  .00000081  00000+0  21978-4 0  9997
2 42804  86.3974 357.9735 0002102  83.2289 276.9146 14.34217840468460
IRIDIUM 120             
1 42805U 17039C   26158.18733671  .00000299  00000+0  99743-4 0  9992
2 42805  86.3953 326.1439 0002024  93.5603 266.5824 14.34223616469742
IRIDIUM 115             
1 42806U 17039D   26158.20426245  .00000432  00000+0  12249-3 0  9996
2 42806  86.4492 326.2641 0002046  86.4992 273.6443 14.43279284472825
IRIDIUM 118             
1 42807U 17039E   26157.84827510 -.00000002  00000+0 -75987-5 0  9991
2 42807  86.3970 357.9583 0002087  87.9520 272.1915 14.34217352468461
IRIDIUM 117             
1 42808U 17039F   26158.28591378 -.00000006  00000+0 -92193-5 0  9993
2 42808  86.3968 357.7330 0002082  86.0884 274.0550 14.34217377468558
IRIDIUM 126             
1 42809U 17039G   26157.82290303  .00000101  00000+0  28920-4 0  9997
2 42809  86.3974 357.9776 0002267  85.0876 275.0578 14.34217562468464
IRIDIUM 124             
1 42810U 17039H   26158.13807985  .00001228  00000+0  35917-3 0  9998
2 42810  86.4472 294.5620 0001977  87.3389 272.8038 14.43281077473661
IRIDIUM 128             
1 42811U 17039J   26157.67410509  .00000013  00000+0 -24902-5 0  9995
2 42811  86.3971  29.5457 0001880  85.1913 274.9497 14.34217561468473
IRIDIUM 121             
1 42812U 17039K   26158.26054250  .00000171  00000+0  53923-4 0  9997
2 42812  86.3975 357.8226 0002109  90.1853 269.9584 14.34218526468409
IRIDIUM 133             
1 42955U 17061A   26157.63604430  .00000144  00000+0  44452-4 0  9998
2 42955  86.3980  29.6791 0002141  85.4169 274.7271 14.34216503453265
IRIDIUM 100             
1 42956U 17061B   26157.62970689  .00000035  00000+0  53805-5 0  9992
2 42956  86.3977  29.6008 0002166  85.9171 274.2273 14.34217843453263
IRIDIUM 122             
1 42957U 17061C   26157.66776295  .00000002  00000+0 -62712-5 0  9996
2 42957  86.3973  29.5850 0002095  83.3648 276.7786 14.34217484453274
IRIDIUM 129             
1 42958U 17061D   26157.62336487  .00000089  00000+0  24862-4 0  9995
2 42958  86.3977  29.6706 0002410  88.6225 271.5247 14.34217374453284
IRIDIUM 119             
1 42959U 17061E   26157.66142067  .00000028  00000+0  28239-5 0  9995
2 42959  86.3979  29.6506 0002279  84.1928 275.9527 14.34217480453309
IRIDIUM 107             
1 42960U 17061F   26157.68044721  .00000161  00000+0  50379-4 0  9994
2 42960  86.3979  29.6637 0002117  79.9736 280.1698 14.34217827453319
IRIDIUM 132             
1 42961U 17061G   26157.68679050  .00000075  00000+0  19610-4 0  9991
2 42961  86.3978  29.6406 0002212  84.9102 275.2346 14.34217960453315
IRIDIUM 136             
1 42962U 17061H   26157.99757429  .00000215  00000+0  69731-4 0  9998
2 42962  86.3979  29.5170 0002230  85.4235 274.7216 14.34216882453375
IRIDIUM 139             
1 42963U 17061J   26158.00391942  .00000226  00000+0  73620-4 0  9990
2 42963  86.3980  29.5765 0002082  86.1991 273.9443 14.34217916453383
IRIDIUM 125             
1 42964U 17061K   26157.64239309  .00000199  00000+0  64046-4 0  9999
2 42964  86.3985  29.7885 0002477  77.0962 283.0511 14.34217613453347
