OBJECT_NAME,OBJECT_ID,EPOCH,MEAN_MOTION,ECCENTRICITY,INCLINATION,RA_OF_ASC_NODE,ARG_OF_PERICENTER,MEAN_ANOMALY,EPHEMERIS_TYPE,CLASSIFICATION_TYPE,NORAD_CAT_ID,ELEMENT_SET_NO,REV_AT_EPOCH,BSTAR,MEAN_MOTION_DOT,MEAN_MOTION_DDOT
IRIDIUM 106,2017-003A,2026-06-07T01:10:18.218208,14.34217724,.00019132,86.3960,92.7941,80.4007,279.7405,0,U,41917,999,49175,.8630836E-5,.44E-6,0
IRIDIUM 103,2017-003B,2026-06-06T13:08:46.226400,14.34215513,.0002545,86.3951,92.9039,81.7381,278.4103,0,U,41918,999,49170,-.28133E-3,-.768E-5,0
IRIDIUM 109,2017-003C,2026-06-07T02:41:38.321376,14.34217688,.0002308,86.3963,92.7269,84.1566,275.9893,0,U,41919,999,49175,.7906335E-5,.42E-6,0
IRIDIUM 102,2017-003D,2026-06-07T01:55:58.261152,14.34217544,.00022712,86.3957,92.6638,86.1775,273.9681,0,U,41920,999,49183,.41480781E-4,.136E-5,0
IRIDIUM 105,2017-003E,2026-06-06T23:15:53.557632,14.34225790,.00024568,86.3970,61.1418,86.0794,274.0683,0,U,41921,999,49367,.89215176E-4,.27E-5,0
IRIDIUM 104,2017-003F,2026-06-06T04:28:10.332480,14.34217797,.00025141,86.3961,93.0801,84.3189,275.8294,0,U,41922,999,49169,.18128451E-4,.71E-6,0
IRIDIUM 114,2017-003G,2026-06-07T02:23:22.275168,14.34218039,.00024102,86.3959,92.6814,83.9444,276.2026,0,U,41923,999,49180,.22962948E-4,.84E-6,0
IRIDIUM 108,2017-003H,2026-06-06T10:19:26.470272,14.34216113,.00022073,86.3965,61.2582,89.0971,271.0478,0,U,41924,999,49356,-.1563769E-3,-.418E-5,0
IRIDIUM 112,2017-003J,2026-06-07T02:05:06.025920,14.34218802,.00024115,86.3957,92.5297,87.8524,272.2948,0,U,41925,999,49182,.29932673E-4,.104E-5,0
IRIDIUM 111,2017-003K,2026-06-06T12:23:06.278496,14.34217646,.00022025,86.3958,92.8384,83.5148,276.6298,0,U,41926,999,49172,-.689454E-6,.18E-6,0
IRIDIUM 113,2017-039A,2026-06-07T04:38:55.201344,14.34217808,.00023092,86.3962,326.3575,90.4468,269.6992,0,U,42803,999,46975,.58582586E-4,.184E-5,0
IRIDIUM 123,2017-039B,2026-06-06T19:35:50.887680,14.34217840,.00021027,86.3974,357.9735,83.2289,276.9146,0,U,42804,999,46846,.21978427E-4,.81E-6,0
IRIDIUM 120,2017-039C,2026-06-07T04:29:45.891744,14.34223616,.0002024,86.3953,326.1439,93.5603,266.5824,0,U,42805,999,46974,.99742914E-4,.299E-5,0
IRIDIUM 115,2017-039D,2026-06-07T04:54:08.275680,14.43279284,.0002046,86.4492,326.2641,86.4992,273.6443,0,U,42806,999,47282,.1224922E-3,.432E-5,0
IRIDIUM 118,2017-039E,2026-06-06T20:21:30.968640,14.34217352,.00020877,86.3970,357.9583,87.9520,272.1915,0,U,42807,999,46846,-.7598706E-5,-.2E-7,0
IRIDIUM 117,2017-039F,2026-06-07T06:51:42.950592,14.34217377,.00020822,86.3968,357.7330,86.0884,274.0550,0,U,42808,999,46855,-.9219265E-5,-.6E-7,0
IRIDIUM 126,2017-039G,2026-06-06T19:44:58.821792,14.34217562,.00022677,86.3974,357.9776,85.0876,275.0578,0,U,42809,999,46846,.28919865E-4,.101E-5,0
IRIDIUM 124,2017-039H,2026-06-07T03:18:50.099040,14.43281077,.00019778,86.4472,294.5620,87.3389,272.8038,0,U,42810,999,47366,.35917434E-3,.1228E-4,0
IRIDIUM 128,2017-039J,2026-06-06T16:10:42.679776,14.34217561,.00018807,86.3971,29.5457,85.1913,274.9497,0,U,42811,999,46847,-.2490154E-5,.13E-6,0
IRIDIUM 121,2017-039K,2026-06-07T06:15:10.872000,14.34218526,.00021094,86.3975,357.8226,90.1853,269.9584,0,U,42812,999,46840,.53923125E-4,.171E-5,0
IRIDIUM 133,2017-061A,2026-06-06T15:15:54.227520,14.34216503,.00021414,86.3980,29.6791,85.4169,274.7271,0,U,42955,999,45326,.44451879E-4,.144E-5,0
IRIDIUM 100,2017-061B,2026-06-06T15:06:46.675296,14.34217843,.00021666,86.3977,29.6008,85.9171,274.2273,0,U,42956,999,45326,.5380522E-5,.35E-6,0
IRIDIUM 122,2017-061C,2026-06-06T16:01:34.718880,14.34217484,.00020959,86.3973,29.5850,83.3648,276.7786,0,U,42957,999,45327,-.6271224E-5,.2E-7,0
IRIDIUM 129,2017-061D,2026-06-06T14:57:38.724768,14.34217374,.00024101,86.3977,29.6706,88.6225,271.5247,0,U,42958,999,45328,.24862089E-4,.89E-6,0
IRIDIUM 119,2017-061E,2026-06-06T15:52:26.745888,14.34217480,.00022794,86.3979,29.6506,84.1928,275.9527,0,U,42959,999,45330,.2823949E-5,.28E-6,0
IRIDIUM 107,2017-061F,2026-06-06T16:19:50.638944,14.34217827,.00021174,86.3979,29.6637,79.9736,280.1698,0,U,42960,999,45331,.50379276E-4,.161E-5,0
IRIDIUM 132,2017-061G,2026-06-06T16:28:58.699200,14.34217960,.00022127,86.3978,29.6406,84.9102,275.2346,0,U,42961,999,45331,.1960972E-4,.75E-6,0
IRIDIUM 136,2017-061H,2026-06-06T23:56:30.418656,14.34216882,.000223,86.3979,29.5170,85.4235,274.7216,0,U,42962,999,45337,.69731319E-4,.215E-5,0
IRIDIUM 139,2017-061J,2026-06-07T00:05:38.637888,14.34217916,.00020828,86.3980,29.5765,86.1991,273.9443,0,U,42963,999,45338,.73620298E-4,.226E-5,0
IRIDIUM 125,2017-061K,2026-06-06T15:25:02.762976,14.34217613,.00024772,86.3985,29.7885,77.0962,283.0511,0,U,42964,999,45334,.64046226E-4,.199E-5,0
